[{"OBJECT_NAME":"STARLINK-5196","OBJECT_ID":"2023-010BC","EPOCH":"2026-03-09T21:24:37.510848","MEAN_MOTION":14.98330027,"ECCENTRICITY":0.00027796,"INCLINATION":70.0009,"RA_OF_ASC_NODE":3.9051,"ARG_OF_PERICENTER":267.8181,"MEAN_ANOMALY":92.266,"EPHEMERIS_TYPE":0,"CLASSIFICATION_TYPE":"U","NORAD_CAT_ID":55319,"ELEMENT_SET_NO":999,"REV_AT_EPOCH":17467,"BSTAR":-3.2041794e-5,"MEAN_MOTION_DOT":-4.75e-6,"MEAN_MOTION_DDOT":0},{"OBJECT_NAME":"FENGYUN 1C DEB","OBJECT_ID":"1999-025EHN","EPOCH":"2026-03-02T16:35:42.867168","MEAN_MOTION":14.48932739,"ECCENTRICITY":0.02433889,"INCLINATION":99.0734,"RA_OF_ASC_NODE":153.2496,"ARG_OF_PERICENTER":110.1255,"MEAN_ANOMALY":252.6301,"EPHEMERIS_TYPE":0,"CLASSIFICATION_TYPE":"U","NORAD_CAT_ID":37444,"ELEMENT_SET_NO":999,"REV_AT_EPOCH":66308,"BSTAR":0.00093157503,"MEAN_MOTION_DOT":5.091e-5,"MEAN_MOTION_DDOT":0}]
